ECHOSTAR 19             
1 41893U 16079A   26062.15392248 -.00000154  00000+0  00000+0 0  9997
2 41893   0.0133 114.6249 0001638 227.1703 137.4285  1.00270774 33645
JCSAT-110A (JCSAT-15)   
1 41903U 16082A   26061.99047748 -.00000367  00000+0  00000+0 0  9992
2 41903   0.0015 181.2647 0000766 167.9879 278.1335  1.00270623 33691
STAR ONE D1             
1 41904U 16082B   26062.14836481 -.00000226  00000+0  00000+0 0  9995
2 41904   0.0179 103.0406 0002158 243.2068 144.0709  1.00271538 33718
TJS-2                   
1 41911U 17001A   26062.14002868 -.00000022  00000+0  00000+0 0  9993
2 41911   0.5594  86.9795 0001840 245.6054 305.2547  1.00271403 33655
SBIRS GEO-4 (USA 273)   
1 41937U 17004A   26062.09147326  .00000109  00000+0  00000+0 0  9992
2 41937   2.0467  40.0212 0002421 301.4224 233.2315  1.00271706 33536
HISPASAT 36W-1          
1 41942U 17006A   26062.12613951  .00000000  00000+0  00000+0 0  9996
2 41942   0.0070 138.3188 0001072 211.9575 180.0530  1.00268801 33189
TELKOM 3S               
1 41944U 17007A   26061.96808987 -.00000379  00000+0  00000+0 0  9995
2 41944   0.0106 135.4436 0002397 204.3818 287.4141  1.00271181 33075
INTELSAT 32E (IS-32E)   
1 41945U 17007B   26062.00743672 -.00000285  00000+0  00000+0 0  9997
2 41945   0.0160 125.7095 0000556 174.0545 180.4978  1.00271010 33165
ECHOSTAR 23             
1 42070U 17014A   26062.15947694 -.00000073  00000+0  00000+0 0  9996
2 42070   0.0178 131.0123 0001883 212.5893 124.8268  1.00272831 32866
WGS F9 (USA 275)        
1 42075U 17016A   26062.05808873  .00000000  00000+0  00000+0 0  9996
2 42075   0.0244 148.4811 0000859 126.1916 255.1137  1.00272016 32834
SES-10                  
1 42432U 17017A   26062.13725227 -.00000288  00000+0  00000+0 0  9993
2 42432   0.0184  73.9531 0002671 272.0062 157.4447  1.00270236 32696
CHINASAT 16 (SJ-13)     
1 42662U 17018A   26061.94880537 -.00000368  00000+0  00000+0 0  9992
2 42662   0.0417  96.3992 0005701 163.5759 352.8060  1.00270523 32684
KOREASAT 7              
1 42691U 17023A   26061.96765655 -.00000378  00000+0  00000+0 0  9996
2 42691   0.0308  23.8266 0001768 344.9525 256.2018  1.00272194 32304
SGDC                    
1 42692U 17023B   26061.76193325  .00000000  00000+0  00000+0 0  9995
2 42692   0.0244 128.8260 0002757 224.3824   6.7878  1.00269906 32349
GSAT-9                  
1 42695U 17024A   26062.03525687 -.00000302  00000+0  00000+0 0  9996
2 42695   0.1082 281.2013 0002030  63.5265 286.0917  1.00271773 32239
INMARSAT 5-F4           
1 42698U 17025A   26062.10530860  .00000060  00000+0  00000+0 0  9997
2 42698   0.0204 130.5623 0000229 172.8662 311.8377  1.00270027 32219
SES-15                  
1 42709U 17026A   26061.99044998  .00000044  00000+0  00000+0 0  9991
2 42709   0.0287 284.1567 0000710  54.3232  49.6551  1.00271248  6361
