[{"OBJECT_NAME":"ECHOSTAR 19","OBJECT_ID":"2016-079A","EPOCH":"2026-03-03T03:41:38.902272","MEAN_MOTION":1.00270774,"ECCENTRICITY":0.0001638,"INCLINATION":0.0133,"RA_OF_ASC_NODE":114.6249,"ARG_OF_PERICENTER":227.1703,"MEAN_ANOMALY":137.4285,"EPHEMERIS_TYPE":0,"CLASSIFICATION_TYPE":"U","NORAD_CAT_ID":41893,"ELEMENT_SET_NO":999,"REV_AT_EPOCH":3364,"BSTAR":0,"MEAN_MOTION_DOT":-1.54e-6,"MEAN_MOTION_DDOT":0},{"OBJECT_NAME":"JCSAT-110A (JCSAT-15)","OBJECT_ID":"2016-082A","EPOCH":"2026-03-02T23:46:17.254272","MEAN_MOTION":1.00270623,"ECCENTRICITY":7.66e-5,"INCLINATION":0.0015,"RA_OF_ASC_NODE":181.2647,"ARG_OF_PERICENTER":167.9879,"MEAN_ANOMALY":278.1335,"EPHEMERIS_TYPE":0,"CLASSIFICATION_TYPE":"U","NORAD_CAT_ID":41903,"ELEMENT_SET_NO":999,"REV_AT_EPOCH":3369,"BSTAR":0,"MEAN_MOTION_DOT":-3.67e-6,"MEAN_MOTION_DDOT":0},{"OBJECT_NAME":"STAR ONE D1","OBJECT_ID":"2016-082B","EPOCH":"2026-03-03T03:33:38.719584","MEAN_MOTION":1.00271538,"ECCENTRICITY":0.0002158,"INCLINATION":0.0179,"RA_OF_ASC_NODE":103.0406,"ARG_OF_PERICENTER":243.2068,"MEAN_ANOMALY":144.0709,"EPHEMERIS_TYPE":0,"CLASSIFICATION_TYPE":"U","NORAD_CAT_ID":41904,"ELEMENT_SET_NO":999,"REV_AT_EPOCH":3371,"BSTAR":0,"MEAN_MOTION_DOT":-2.26e-6,"MEAN_MOTION_DDOT":0},{"OBJECT_NAME":"TJS-2","OBJECT_ID":"2017-001A","EPOCH":"2026-03-03T03:21:38.477952","MEAN_MOTION":1.00271403,"ECCENTRICITY":0.000184,"INCLINATION":0.5594,"RA_OF_ASC_NODE":86.9795,"ARG_OF_PERICENTER":245.6054,"MEAN_ANOMALY":305.2547,"EPHEMERIS_TYPE":0,"CLASSIFICATION_TYPE":"U","NORAD_CAT_ID":41911,"ELEMENT_SET_NO":999,"REV_AT_EPOCH":3365,"BSTAR":0,"MEAN_MOTION_DOT":-2.2e-7,"MEAN_MOTION_DDOT":0},{"OBJECT_NAME":"SBIRS GEO-4 (USA 273)","OBJECT_ID":"2017-004A","EPOCH":"2026-03-03T02:11:43.289664","MEAN_MOTION":1.00271706,"ECCENTRICITY":0.0002421,"INCLINATION":2.0467,"RA_OF_ASC_NODE":40.0212,"ARG_OF_PERICENTER":301.4224,"MEAN_ANOMALY":233.2315,"EPHEMERIS_TYPE":0,"CLASSIFICATION_TYPE":"U","NORAD_CAT_ID":41937,"ELEMENT_SET_NO":999,"REV_AT_EPOCH":3353,"BSTAR":0,"MEAN_MOTION_DOT":1.09e-6,"MEAN_MOTION_DDOT":0},{"OBJECT_NAME":"HISPASAT 36W-1","OBJECT_ID":"2017-006A","EPOCH":"2026-03-03T03:01:38.453664","MEAN_MOTION":1.00268801,"ECCENTRICITY":0.0001072,"INCLINATION":0.007,"RA_OF_ASC_NODE":138.3188,"ARG_OF_PERICENTER":211.9575,"MEAN_ANOMALY":180.053,"EPHEMERIS_TYPE":0,"CLASSIFICATION_TYPE":"U","NORAD_CAT_ID":41942,"ELEMENT_SET_NO":999,"REV_AT_EPOCH":3318,"BSTAR":0,"MEAN_MOTION_DOT":0,"MEAN_MOTION_DDOT":0},{"OBJECT_NAME":"TELKOM 3S","OBJECT_ID":"2017-007A","EPOCH":"2026-03-02T23:14:02.964768","MEAN_MOTION":1.00271181,"ECCENTRICITY":0.0002397,"INCLINATION":0.0106,"RA_OF_ASC_NODE":135.4436,"ARG_OF_PERICENTER":204.3818,"MEAN_ANOMALY":287.4141,"EPHEMERIS_TYPE":0,"CLASSIFICATION_TYPE":"U","NORAD_CAT_ID":41944,"ELEMENT_SET_NO":999,"REV_AT_EPOCH":3307,"BSTAR":0,"MEAN_MOTION_DOT":-3.79e-6,"MEAN_MOTION_DDOT":0},{"OBJECT_NAME":"INTELSAT 32E (IS-32E)","OBJECT_ID":"2017-007B","EPOCH":"2026-03-03T00:10:42.532608","MEAN_MOTION":1.0027101,"ECCENTRICITY":5.56e-5,"INCLINATION":0.016,"RA_OF_ASC_NODE":125.7095,"ARG_OF_PERICENTER":174.0545,"MEAN_ANOMALY":180.4978,"EPHEMERIS_TYPE":0,"CLASSIFICATION_TYPE":"U","NORAD_CAT_ID":41945,"ELEMENT_SET_NO":999,"REV_AT_EPOCH":3316,"BSTAR":0,"MEAN_MOTION_DOT":-2.85e-6,"MEAN_MOTION_DDOT":0},{"OBJECT_NAME":"ECHOSTAR 23","OBJECT_ID":"2017-014A","EPOCH":"2026-03-03T03:49:38.807616","MEAN_MOTION":1.00272831,"ECCENTRICITY":0.0001883,"INCLINATION":0.0178,"RA_OF_ASC_NODE":131.0123,"ARG_OF_PERICENTER":212.5893,"MEAN_ANOMALY":124.8268,"EPHEMERIS_TYPE":0,"CLASSIFICATION_TYPE":"U","NORAD_CAT_ID":42070,"ELEMENT_SET_NO":999,"REV_AT_EPOCH":3286,"BSTAR":0,"MEAN_MOTION_DOT":-7.3e-7,"MEAN_MOTION_DDOT":0},{"OBJECT_NAME":"WGS F9 (USA 275)","OBJECT_ID":"2017-016A","EPOCH":"2026-03-03T01:23:38.866272","MEAN_MOTION":1.00272016,"ECCENTRICITY":8.59e-5,"INCLINATION":0.0244,"RA_OF_ASC_NODE":148.4811,"ARG_OF_PERICENTER":126.1916,"MEAN_ANOMALY":255.1137,"EPHEMERIS_TYPE":0,"CLASSIFICATION_TYPE":"U","NORAD_CAT_ID":42075,"ELEMENT_SET_NO":999,"REV_AT_EPOCH":3283,"BSTAR":0,"MEAN_MOTION_DOT":0,"MEAN_MOTION_DDOT":0},{"OBJECT_NAME":"SES-10","OBJECT_ID":"2017-017A","EPOCH":"2026-03-03T03:17:38.596128","MEAN_MOTION":1.00270236,"ECCENTRICITY":0.0002671,"INCLINATION":0.0184,"RA_OF_ASC_NODE":73.9531,"ARG_OF_PERICENTER":272.0062,"MEAN_ANOMALY":157.4447,"EPHEMERIS_TYPE":0,"CLASSIFICATION_TYPE":"U","NORAD_CAT_ID":42432,"ELEMENT_SET_NO":999,"REV_AT_EPOCH":3269,"BSTAR":0,"MEAN_MOTION_DOT":-2.88e-6,"MEAN_MOTION_DDOT":0},{"OBJECT_NAME":"CHINASAT 16 (SJ-13)","OBJECT_ID":"2017-018A","EPOCH":"2026-03-02T22:46:16.783968","MEAN_MOTION":1.00270523,"ECCENTRICITY":0.0005701,"INCLINATION":0.0417,"RA_OF_ASC_NODE":96.3992,"ARG_OF_PERICENTER":163.5759,"MEAN_ANOMALY":352.806,"EPHEMERIS_TYPE":0,"CLASSIFICATION_TYPE":"U","NORAD_CAT_ID":42662,"ELEMENT_SET_NO":999,"REV_AT_EPOCH":3268,"BSTAR":0,"MEAN_MOTION_DOT":-3.68e-6,"MEAN_MOTION_DDOT":0},{"OBJECT_NAME":"KOREASAT 7","OBJECT_ID":"2017-023A","EPOCH":"2026-03-02T23:13:25.525920","MEAN_MOTION":1.00272194,"ECCENTRICITY":0.0001768,"INCLINATION":0.0308,"RA_OF_ASC_NODE":23.8266,"ARG_OF_PERICENTER":344.9525,"MEAN_ANOMALY":256.2018,"EPHEMERIS_TYPE":0,"CLASSIFICATION_TYPE":"U","NORAD_CAT_ID":42691,"ELEMENT_SET_NO":999,"REV_AT_EPOCH":3230,"BSTAR":0,"MEAN_MOTION_DOT":-3.78e-6,"MEAN_MOTION_DDOT":0},{"OBJECT_NAME":"SGDC","OBJECT_ID":"2017-023B","EPOCH":"2026-03-02T18:17:11.032800","MEAN_MOTION":1.00269906,"ECCENTRICITY":0.0002757,"INCLINATION":0.0244,"RA_OF_ASC_NODE":128.826,"ARG_OF_PERICENTER":224.3824,"MEAN_ANOMALY":6.7878,"EPHEMERIS_TYPE":0,"CLASSIFICATION_TYPE":"U","NORAD_CAT_ID":42692,"ELEMENT_SET_NO":999,"REV_AT_EPOCH":3234,"BSTAR":0,"MEAN_MOTION_DOT":0,"MEAN_MOTION_DDOT":0},{"OBJECT_NAME":"GSAT-9","OBJECT_ID":"2017-024A","EPOCH":"2026-03-03T00:50:46.193568","MEAN_MOTION":1.00271773,"ECCENTRICITY":0.000203,"INCLINATION":0.1082,"RA_OF_ASC_NODE":281.2013,"ARG_OF_PERICENTER":63.5265,"MEAN_ANOMALY":286.0917,"EPHEMERIS_TYPE":0,"CLASSIFICATION_TYPE":"U","NORAD_CAT_ID":42695,"ELEMENT_SET_NO":999,"REV_AT_EPOCH":3223,"BSTAR":0,"MEAN_MOTION_DOT":-3.02e-6,"MEAN_MOTION_DDOT":0},{"OBJECT_NAME":"INMARSAT 5-F4","OBJECT_ID":"2017-025A","EPOCH":"2026-03-03T02:31:38.663040","MEAN_MOTION":1.00270027,"ECCENTRICITY":2.29e-5,"INCLINATION":0.0204,"RA_OF_ASC_NODE":130.5623,"ARG_OF_PERICENTER":172.8662,"MEAN_ANOMALY":311.8377,"EPHEMERIS_TYPE":0,"CLASSIFICATION_TYPE":"U","NORAD_CAT_ID":42698,"ELEMENT_SET_NO":999,"REV_AT_EPOCH":3221,"BSTAR":0,"MEAN_MOTION_DOT":6.0e-7,"MEAN_MOTION_DDOT":0},{"OBJECT_NAME":"SES-15","OBJECT_ID":"2017-026A","EPOCH":"2026-03-02T23:46:14.878272","MEAN_MOTION":1.00271248,"ECCENTRICITY":7.1e-5,"INCLINATION":0.0287,"RA_OF_ASC_NODE":284.1567,"ARG_OF_PERICENTER":54.3232,"MEAN_ANOMALY":49.6551,"EPHEMERIS_TYPE":0,"CLASSIFICATION_TYPE":"U","NORAD_CAT_ID":42709,"ELEMENT_SET_NO":999,"REV_AT_EPOCH":636,"BSTAR":0,"MEAN_MOTION_DOT":4.4e-7,"MEAN_MOTION_DDOT":0}]
